{"fetched_at":"2026-07-10T07:58:43.188Z","source":"https://celestrak.org/NORAD/elements/gp.php?GROUP=planet&FORMAT=JSON","constellation":"superdove","records":[{"OBJECT_NAME":"FLOCK 4BE-17","OBJECT_ID":"2024-149AA","EPOCH":"2026-07-08T17:26:48.530976","CLASSIFICATION_TYPE":"U","MEAN_MOTION":15.40434288,"ECCENTRICITY":0.00039315,"INCLINATION":97.3765,"RA_OF_ASC_NODE":273.2745,"ARG_OF_PERICENTER":162.8357,"MEAN_ANOMALY":197.3023,"EPHEMERIS_TYPE":0,"NORAD_CAT_ID":60492,"ELEMENT_SET_NO":999,"REV_AT_EPOCH":10557,"BSTAR":0.00028106945,"MEAN_MOTION_DOT":0.00011296,"MEAN_MOTION_DDOT":0},{"OBJECT_NAME":"FLOCK 4BE-22","OBJECT_ID":"2024-149AC","EPOCH":"2026-07-09T04:59:50.704800","CLASSIFICATION_TYPE":"U","MEAN_MOTION":15.41857225,"ECCENTRICITY":0.00042762,"INCLINATION":97.3733,"RA_OF_ASC_NODE":273.9865,"ARG_OF_PERICENTER":171.8142,"MEAN_ANOMALY":188.3176,"EPHEMERIS_TYPE":0,"NORAD_CAT_ID":60494,"ELEMENT_SET_NO":999,"REV_AT_EPOCH":10569,"BSTAR":0.00029658425,"MEAN_MOTION_DOT":0.00012504,"MEAN_MOTION_DDOT":0},{"OBJECT_NAME":"FLOCK 4BE-34","OBJECT_ID":"2024-149AD","EPOCH":"2026-07-08T18:30:44.832672","CLASSIFICATION_TYPE":"U","MEAN_MOTION":15.41812306,"ECCENTRICITY":0.00041837,"INCLINATION":97.3774,"RA_OF_ASC_NODE":274.3812,"ARG_OF_PERICENTER":179.9988,"MEAN_ANOMALY":180.126,"EPHEMERIS_TYPE":0,"NORAD_CAT_ID":60495,"ELEMENT_SET_NO":999,"REV_AT_EPOCH":10565,"BSTAR":0.00028512917,"MEAN_MOTION_DOT":0.00011999,"MEAN_MOTION_DDOT":0},{"OBJECT_NAME":"FLOCK 4BE-32","OBJECT_ID":"2024-149AF","EPOCH":"2026-07-08T18:57:44.417088","CLASSIFICATION_TYPE":"U","MEAN_MOTION":15.4292561,"ECCENTRICITY":0.00043833,"INCLINATION":97.3712,"RA_OF_ASC_NODE":273.9609,"ARG_OF_PERICENTER":177.053,"MEAN_ANOMALY":183.0744,"EPHEMERIS_TYPE":0,"NORAD_CAT_ID":60497,"ELEMENT_SET_NO":999,"REV_AT_EPOCH":10566,"BSTAR":0.00031189442,"MEAN_MOTION_DOT":0.00013635,"MEAN_MOTION_DDOT":0},{"OBJECT_NAME":"FLOCK 4BE-11","OBJECT_ID":"2024-149AK","EPOCH":"2026-07-08T18:33:41.506848","CLASSIFICATION_TYPE":"U","MEAN_MOTION":15.43716945,"ECCENTRICITY":0.0004455,"INCLINATION":97.3692,"RA_OF_ASC_NODE":274.1945,"ARG_OF_PERICENTER":177.0967,"MEAN_ANOMALY":183.0308,"EPHEMERIS_TYPE":0,"NORAD_CAT_ID":60501,"ELEMENT_SET_NO":999,"REV_AT_EPOCH":10568,"BSTAR":0.00030993334,"MEAN_MOTION_DOT":0.00013915,"MEAN_MOTION_DDOT":0},{"OBJECT_NAME":"FLOCK 4BE-24","OBJECT_ID":"2024-149AP","EPOCH":"2026-07-08T18:11:28.727232","CLASSIFICATION_TYPE":"U","MEAN_MOTION":15.43919955,"ECCENTRICITY":0.00044566,"INCLINATION":97.3708,"RA_OF_ASC_NODE":274.4441,"ARG_OF_PERICENTER":189.57,"MEAN_ANOMALY":170.5464,"EPHEMERIS_TYPE":0,"NORAD_CAT_ID":60505,"ELEMENT_SET_NO":999,"REV_AT_EPOCH":10569,"BSTAR":0.00034742206,"MEAN_MOTION_DOT":0.0001572,"MEAN_MOTION_DDOT":0},{"OBJECT_NAME":"FLOCK 4BE-29","OBJECT_ID":"2024-149AT","EPOCH":"2026-07-08T19:39:20.292768","CLASSIFICATION_TYPE":"U","MEAN_MOTION":15.45081386,"ECCENTRICITY":0.00030063,"INCLINATION":97.3804,"RA_OF_ASC_NODE":276.0285,"ARG_OF_PERICENTER":192.256,"MEAN_ANOMALY":167.8616,"EPHEMERIS_TYPE":0,"NORAD_CAT_ID":60509,"ELEMENT_SET_NO":999,"REV_AT_EPOCH":10575,"BSTAR":0.00067382468,"MEAN_MOTION_DOT":0.00031858,"MEAN_MOTION_DDOT":0},{"OBJECT_NAME":"FLOCK 4BE-2","OBJECT_ID":"2024-149AV","EPOCH":"2026-07-09T15:52:13.296000","CLASSIFICATION_TYPE":"U","MEAN_MOTION":15.55382059,"ECCENTRICITY":0.0005091,"INCLINATION":97.3824,"RA_OF_ASC_NODE":278.6387,"ARG_OF_PERICENTER":188.0676,"MEAN_ANOMALY":172.0497,"EPHEMERIS_TYPE":0,"NORAD_CAT_ID":60511,"ELEMENT_SET_NO":999,"REV_AT_EPOCH":10599,"BSTAR":0.00075479,"MEAN_MOTION_DOT":0.00051489,"MEAN_MOTION_DDOT":0},{"OBJECT_NAME":"FLOCK 4BE-13","OBJECT_ID":"2024-149AW","EPOCH":"2026-07-08T18:18:34.857216","CLASSIFICATION_TYPE":"U","MEAN_MOTION":15.42489198,"ECCENTRICITY":0.00045962,"INCLINATION":97.3713,"RA_OF_ASC_NODE":274.4064,"ARG_OF_PERICENTER":175.1537,"MEAN_ANOMALY":184.9756,"EPHEMERIS_TYPE":0,"NORAD_CAT_ID":60512,"ELEMENT_SET_NO":999,"REV_AT_EPOCH":10569,"BSTAR":0.000247636,"MEAN_MOTION_DOT":0.00010647,"MEAN_MOTION_DDOT":0},{"OBJECT_NAME":"FLOCK 4BE-27","OBJECT_ID":"2024-149AX","EPOCH":"2026-07-09T18:07:15.322944","CLASSIFICATION_TYPE":"U","MEAN_MOTION":15.34852169,"ECCENTRICITY":0.0003419,"INCLINATION":97.3821,"RA_OF_ASC_NODE":272.6217,"ARG_OF_PERICENTER":200.8149,"MEAN_ANOMALY":159.2956,"EPHEMERIS_TYPE":0,"NORAD_CAT_ID":60513,"ELEMENT_SET_NO":999,"REV_AT_EPOCH":10560,"BSTAR":0.00020523,"MEAN_MOTION_DOT":0.00006856,"MEAN_MOTION_DDOT":0},{"OBJECT_NAME":"FLOCK 4BE-9","OBJECT_ID":"2024-149AY","EPOCH":"2026-07-09T00:52:37.051680","CLASSIFICATION_TYPE":"U","MEAN_MOTION":15.41465848,"ECCENTRICITY":0.00030915,"INCLINATION":97.3785,"RA_OF_ASC_NODE":274.5287,"ARG_OF_PERICENTER":188.647,"MEAN_ANOMALY":171.4725,"EPHEMERIS_TYPE":0,"NORAD_CAT_ID":60514,"ELEMENT_SET_NO":999,"REV_AT_EPOCH":10568,"BSTAR":0.00027016402,"MEAN_MOTION_DOT":0.00011231,"MEAN_MOTION_DDOT":0},{"OBJECT_NAME":"FLOCK 4BE-6","OBJECT_ID":"2024-149BA","EPOCH":"2026-07-08T18:11:39.342336","CLASSIFICATION_TYPE":"U","MEAN_MOTION":15.40192015,"ECCENTRICITY":0.00036895,"INCLINATION":97.3783,"RA_OF_ASC_NODE":273.5644,"ARG_OF_PERICENTER":193.1062,"MEAN_ANOMALY":167.0089,"EPHEMERIS_TYPE":0,"NORAD_CAT_ID":60516,"ELEMENT_SET_NO":999,"REV_AT_EPOCH":10559,"BSTAR":0.00027191308,"MEAN_MOTION_DOT":0.00010837,"MEAN_MOTION_DDOT":0},{"OBJECT_NAME":"FLOCK 4BE-14","OBJECT_ID":"2024-149BB","EPOCH":"2026-07-09T04:13:02.163072","CLASSIFICATION_TYPE":"U","MEAN_MOTION":15.41719707,"ECCENTRICITY":0.00046542,"INCLINATION":97.369,"RA_OF_ASC_NODE":274.1426,"ARG_OF_PERICENTER":196.4822,"MEAN_ANOMALY":163.6274,"EPHEMERIS_TYPE":0,"NORAD_CAT_ID":60517,"ELEMENT_SET_NO":999,"REV_AT_EPOCH":10571,"BSTAR":0.00033129703,"MEAN_MOTION_DOT":0.00013917,"MEAN_MOTION_DDOT":0},{"OBJECT_NAME":"FLOCK 4BE-1","OBJECT_ID":"2024-149BC","EPOCH":"2026-07-09T00:55:56.414496","CLASSIFICATION_TYPE":"U","MEAN_MOTION":15.43357693,"ECCENTRICITY":0.00044346,"INCLINATION":97.3773,"RA_OF_ASC_NODE":275.361,"ARG_OF_PERICENTER":196.2754,"MEAN_ANOMALY":163.8352,"EPHEMERIS_TYPE":0,"NORAD_CAT_ID":60518,"ELEMENT_SET_NO":999,"REV_AT_EPOCH":10574,"BSTAR":0.00029886531,"MEAN_MOTION_DOT":0.00013252,"MEAN_MOTION_DDOT":0},{"OBJECT_NAME":"FLOCK 4BE-28","OBJECT_ID":"2024-149BD","EPOCH":"2026-07-08T18:15:44.754624","CLASSIFICATION_TYPE":"U","MEAN_MOTION":15.45886309,"ECCENTRICITY":0.0004426,"INCLINATION":97.374,"RA_OF_ASC_NODE":275.8716,"ARG_OF_PERICENTER":193.5575,"MEAN_ANOMALY":166.5556,"EPHEMERIS_TYPE":0,"NORAD_CAT_ID":60519,"ELEMENT_SET_NO":999,"REV_AT_EPOCH":10577,"BSTAR":0.00070234842,"MEAN_MOTION_DOT":0.0003415,"MEAN_MOTION_DDOT":0},{"OBJECT_NAME":"FLOCK 4BE-5","OBJECT_ID":"2024-149CV","EPOCH":"2026-07-08T18:52:20.361792","CLASSIFICATION_TYPE":"U","MEAN_MOTION":15.40910074,"ECCENTRICITY":0.00033716,"INCLINATION":97.3837,"RA_OF_ASC_NODE":274.0026,"ARG_OF_PERICENTER":190.9635,"MEAN_ANOMALY":169.1539,"EPHEMERIS_TYPE":0,"NORAD_CAT_ID":60559,"ELEMENT_SET_NO":999,"REV_AT_EPOCH":10560,"BSTAR":0.00026995319,"MEAN_MOTION_DOT":0.00011017,"MEAN_MOTION_DDOT":0}]}
